SL-3 R/B                
1 13403U 82079B   25339.25930451  .00010830  00000+0  44862-3 0  9996
2 13403  81.1463 304.4773 0026932 122.9973 237.3853 15.23456055363312
SL-14 R/B               
1 13553U 82092B   25339.21974661  .00000945  00000+0  10377-3 0  9994
2 13553  82.5687 229.7440 0018879 253.8601 225.0007 14.86543884314893
SL-3 R/B                
1 13819U 83010B   25338.86195889  .00023445  00000+0  52514-3 0  9996
2 13819  81.1030 118.2318 0017532  18.3051 341.8819 15.43141384343308
SL-3 R/B                
1 14208U 83075B   25339.23041613  .00017286  00000+0  49266-3 0  9993
2 14208  97.6095 335.4630 0021880 202.7508 157.2768 15.35907732315647
COSMOS 1536             
1 14699U 84013A   25339.11645600  .00010110  00000+0  43539-3 0  9999
2 14699  82.5454 201.7232 0013180 255.5262 104.4512 15.22389065258223
SL-14 R/B               
1 14820U 84027B   25339.28254275  .00000969  00000+0  10828-3 0  9998
2 14820  82.5408 333.5502 0016466 287.9220  72.0200 14.85861944233614
SL-8 R/B                
1 15483U 85006B   25339.30564644  .00000527  00000+0  18357-3 0  9994
2 15483  74.0465  74.8118 0018366   8.8782  50.4070 14.37714507140465
SL-12 R/B(2)            
1 15772U 85042D   25339.30695500  .00000198  00000+0  11042-3 0  9999
2 15772  71.1082 287.1222 0037675 272.3849 240.0789 14.21948181100976
SL-14 R/B               
1 15945U 85069B   25338.82478328  .00001137  00000+0  12605-3 0  9993
2 15945  82.5260 114.1435 0019681 143.2392 217.0179 14.86309670158743
SL-16 R/B               
1 16182U 85097B   25339.28485547 -.00000085  00000+0 -18683-4 0  9996
2 16182  71.0031 339.2987 0006206  22.6410 349.4594 14.16581711 73869
SL-14 R/B               
1 16496U 86006B   25339.29617681  .00001234  00000+0  12928-3 0  9992
2 16496  82.5266 348.5558 0075601 224.7969 134.7130 14.86656519135181
COSMOS 1743             
1 16719U 86034A   25338.98109932  .00043819  00000+0  73658-3 0  9993
2 16719  82.5341 172.6467 0004797 287.4064  72.6663 15.51555329165531
