CCSDS_OMM_VERS = 2.0
CREATION_DATE  = 
ORIGINATOR     = 

OBJECT_NAME    = SL-3 R/B
OBJECT_ID      = 1982-079B
CENTER_NAME    = EARTH
REF_FRAME      = TEME
TIME_SYSTEM    = UTC
MEAN_ELEMENT_THEORY = SGP/SGP4

EPOCH          = 2025-12-05T06:13:23.909664
MEAN_MOTION    = 15.23456055
ECCENTRICITY   = .00269325
INCLINATION    = 81.1463
RA_OF_ASC_NODE = 304.4773
ARG_OF_PERICENTER = 122.9973
MEAN_ANOMALY   = 237.3853

EPHEMERIS_TYPE = 0
CLASSIFICATION_TYPE = U
NORAD_CAT_ID   = 13403
ELEMENT_SET_NO = 999
REV_AT_EPOCH   = 36331
BSTAR          = .44861701E-3
MEAN_MOTION_DOT = .1083E-3
MEAN_MOTION_DDOT = 0

CCSDS_OMM_VERS = 2.0
CREATION_DATE  = 
ORIGINATOR     = 

OBJECT_NAME    = SL-14 R/B
OBJECT_ID      = 1982-092B
CENTER_NAME    = EARTH
REF_FRAME      = TEME
TIME_SYSTEM    = UTC
MEAN_ELEMENT_THEORY = SGP/SGP4

EPOCH          = 2025-12-05T05:16:26.107104
MEAN_MOTION    = 14.86543884
ECCENTRICITY   = .00188791
INCLINATION    = 82.5687
RA_OF_ASC_NODE = 229.7440
ARG_OF_PERICENTER = 253.8601
MEAN_ANOMALY   = 225.0007

EPHEMERIS_TYPE = 0
CLASSIFICATION_TYPE = U
NORAD_CAT_ID   = 13553
ELEMENT_SET_NO = 999
REV_AT_EPOCH   = 31489
BSTAR          = .10377116E-3
MEAN_MOTION_DOT = .945E-5
MEAN_MOTION_DDOT = 0

CCSDS_OMM_VERS = 2.0
CREATION_DATE  = 
ORIGINATOR     = 

OBJECT_NAME    = SL-3 R/B
OBJECT_ID      = 1983-010B
CENTER_NAME    = EARTH
REF_FRAME      = TEME
TIME_SYSTEM    = UTC
MEAN_ELEMENT_THEORY = SGP/SGP4

EPOCH          = 2025-12-04T20:41:13.248096
MEAN_MOTION    = 15.43141384
ECCENTRICITY   = .0017532
INCLINATION    = 81.1030
RA_OF_ASC_NODE = 118.2318
ARG_OF_PERICENTER = 18.3051
MEAN_ANOMALY   = 341.8819

EPHEMERIS_TYPE = 0
CLASSIFICATION_TYPE = U
NORAD_CAT_ID   = 13819
ELEMENT_SET_NO = 999
REV_AT_EPOCH   = 34330
BSTAR          = .52514E-3
MEAN_MOTION_DOT = .23445E-3
MEAN_MOTION_DDOT = 0

CCSDS_OMM_VERS = 2.0
CREATION_DATE  = 
ORIGINATOR     = 

OBJECT_NAME    = SL-3 R/B
OBJECT_ID      = 1983-075B
CENTER_NAME    = EARTH
REF_FRAME      = TEME
TIME_SYSTEM    = UTC
MEAN_ELEMENT_THEORY = SGP/SGP4

EPOCH          = 2025-12-05T05:31:47.953632
MEAN_MOTION    = 15.35907732
ECCENTRICITY   = .00218808
INCLINATION    = 97.6095
RA_OF_ASC_NODE = 335.4630
ARG_OF_PERICENTER = 202.7508
MEAN_ANOMALY   = 157.2768

EPHEMERIS_TYPE = 0
CLASSIFICATION_TYPE = U
NORAD_CAT_ID   = 14208
ELEMENT_SET_NO = 999
REV_AT_EPOCH   = 31564
BSTAR          = .49266323E-3
MEAN_MOTION_DOT = .17286E-3
MEAN_MOTION_DDOT = 0

CCSDS_OMM_VERS = 2.0
CREATION_DATE  = 
ORIGINATOR     = 

OBJECT_NAME    = COSMOS 1536
OBJECT_ID      = 1984-013A
CENTER_NAME    = EARTH
REF_FRAME      = TEME
TIME_SYSTEM    = UTC
MEAN_ELEMENT_THEORY = SGP/SGP4

EPOCH          = 2025-12-05T02:47:41.798400
MEAN_MOTION    = 15.22389065
ECCENTRICITY   = .00131805
INCLINATION    = 82.5454
RA_OF_ASC_NODE = 201.7232
ARG_OF_PERICENTER = 255.5262
MEAN_ANOMALY   = 104.4512

EPHEMERIS_TYPE = 0
CLASSIFICATION_TYPE = U
NORAD_CAT_ID   = 14699
ELEMENT_SET_NO = 999
REV_AT_EPOCH   = 25822
BSTAR          = .43539284E-3
MEAN_MOTION_DOT = .1011E-3
MEAN_MOTION_DDOT = 0

CCSDS_OMM_VERS = 2.0
CREATION_DATE  = 
ORIGINATOR     = 

OBJECT_NAME    = SL-14 R/B
OBJECT_ID      = 1984-027B
CENTER_NAME    = EARTH
REF_FRAME      = TEME
TIME_SYSTEM    = UTC
MEAN_ELEMENT_THEORY = SGP/SGP4

EPOCH          = 2025-12-05T06:46:51.693600
MEAN_MOTION    = 14.85861944
ECCENTRICITY   = .00164666
INCLINATION    = 82.5408
RA_OF_ASC_NODE = 333.5502
ARG_OF_PERICENTER = 287.9220
MEAN_ANOMALY   = 72.0200

EPHEMERIS_TYPE = 0
CLASSIFICATION_TYPE = U
NORAD_CAT_ID   = 14820
ELEMENT_SET_NO = 999
REV_AT_EPOCH   = 23361
BSTAR          = .10828325E-3
MEAN_MOTION_DOT = .969E-5
MEAN_MOTION_DDOT = 0

CCSDS_OMM_VERS = 2.0
CREATION_DATE  = 
ORIGINATOR     = 

OBJECT_NAME    = SL-8 R/B
OBJECT_ID      = 1985-006B
CENTER_NAME    = EARTH
REF_FRAME      = TEME
TIME_SYSTEM    = UTC
MEAN_ELEMENT_THEORY = SGP/SGP4

EPOCH          = 2025-12-05T07:20:07.852416
MEAN_MOTION    = 14.37714507
ECCENTRICITY   = .00183669
INCLINATION    = 74.0465
RA_OF_ASC_NODE = 74.8118
ARG_OF_PERICENTER = 8.8782
MEAN_ANOMALY   = 50.4070

EPHEMERIS_TYPE = 0
CLASSIFICATION_TYPE = U
NORAD_CAT_ID   = 15483
ELEMENT_SET_NO = 999
REV_AT_EPOCH   = 14046
BSTAR          = .18357E-3
MEAN_MOTION_DOT = .527E-5
MEAN_MOTION_DDOT = 0

CCSDS_OMM_VERS = 2.0
CREATION_DATE  = 
ORIGINATOR     = 

OBJECT_NAME    = SL-12 R/B(2)
OBJECT_ID      = 1985-042D
CENTER_NAME    = EARTH
REF_FRAME      = TEME
TIME_SYSTEM    = UTC
MEAN_ELEMENT_THEORY = SGP/SGP4

EPOCH          = 2025-12-05T07:22:00.912000
MEAN_MOTION    = 14.21948181
ECCENTRICITY   = .00376752
INCLINATION    = 71.1082
RA_OF_ASC_NODE = 287.1222
ARG_OF_PERICENTER = 272.3849
MEAN_ANOMALY   = 240.0789

EPHEMERIS_TYPE = 0
CLASSIFICATION_TYPE = U
NORAD_CAT_ID   = 15772
ELEMENT_SET_NO = 999
REV_AT_EPOCH   = 10097
BSTAR          = .1104214E-3
MEAN_MOTION_DOT = .198E-5
MEAN_MOTION_DDOT = 0

CCSDS_OMM_VERS = 2.0
CREATION_DATE  = 
ORIGINATOR     = 

OBJECT_NAME    = SL-14 R/B
OBJECT_ID      = 1985-069B
CENTER_NAME    = EARTH
REF_FRAME      = TEME
TIME_SYSTEM    = UTC
MEAN_ELEMENT_THEORY = SGP/SGP4

EPOCH          = 2025-12-04T19:47:41.275392
MEAN_MOTION    = 14.86309670
ECCENTRICITY   = .0019681
INCLINATION    = 82.5260
RA_OF_ASC_NODE = 114.1435
ARG_OF_PERICENTER = 143.2392
MEAN_ANOMALY   = 217.0179

EPHEMERIS_TYPE = 0
CLASSIFICATION_TYPE = U
NORAD_CAT_ID   = 15945
ELEMENT_SET_NO = 999
REV_AT_EPOCH   = 15874
BSTAR          = .12604948E-3
MEAN_MOTION_DOT = .1137E-4
MEAN_MOTION_DDOT = 0

CCSDS_OMM_VERS = 2.0
CREATION_DATE  = 
ORIGINATOR     = 

OBJECT_NAME    = SL-16 R/B
OBJECT_ID      = 1985-097B
CENTER_NAME    = EARTH
REF_FRAME      = TEME
TIME_SYSTEM    = UTC
MEAN_ELEMENT_THEORY = SGP/SGP4

EPOCH          = 2025-12-05T06:50:11.512608
MEAN_MOTION    = 14.16581711
ECCENTRICITY   = .00062066
INCLINATION    = 71.0031
RA_OF_ASC_NODE = 339.2987
ARG_OF_PERICENTER = 22.6410
MEAN_ANOMALY   = 349.4594

EPHEMERIS_TYPE = 0
CLASSIFICATION_TYPE = U
NORAD_CAT_ID   = 16182
ELEMENT_SET_NO = 999
REV_AT_EPOCH   = 7386
BSTAR          = -.18682711E-4
MEAN_MOTION_DOT = -.85E-6
MEAN_MOTION_DDOT = 0

CCSDS_OMM_VERS = 2.0
CREATION_DATE  = 
ORIGINATOR     = 

OBJECT_NAME    = SL-14 R/B
OBJECT_ID      = 1986-006B
CENTER_NAME    = EARTH
REF_FRAME      = TEME
TIME_SYSTEM    = UTC
MEAN_ELEMENT_THEORY = SGP/SGP4

EPOCH          = 2025-12-05T07:06:29.676384
MEAN_MOTION    = 14.86656519
ECCENTRICITY   = .00756017
INCLINATION    = 82.5266
RA_OF_ASC_NODE = 348.5558
ARG_OF_PERICENTER = 224.7969
MEAN_ANOMALY   = 134.7130

EPHEMERIS_TYPE = 0
CLASSIFICATION_TYPE = U
NORAD_CAT_ID   = 16496
ELEMENT_SET_NO = 999
REV_AT_EPOCH   = 13518
BSTAR          = .12928262E-3
MEAN_MOTION_DOT = .1234E-4
MEAN_MOTION_DDOT = 0

CCSDS_OMM_VERS = 2.0
CREATION_DATE  = 
ORIGINATOR     = 

OBJECT_NAME    = COSMOS 1743
OBJECT_ID      = 1986-034A
CENTER_NAME    = EARTH
REF_FRAME      = TEME
TIME_SYSTEM    = UTC
MEAN_ELEMENT_THEORY = SGP/SGP4

EPOCH          = 2025-12-04T23:32:46.981248
MEAN_MOTION    = 15.51555329
ECCENTRICITY   = .00047971
INCLINATION    = 82.5341
RA_OF_ASC_NODE = 172.6467
ARG_OF_PERICENTER = 287.4064
MEAN_ANOMALY   = 72.6663

EPHEMERIS_TYPE = 0
CLASSIFICATION_TYPE = U
NORAD_CAT_ID   = 16719
ELEMENT_SET_NO = 999
REV_AT_EPOCH   = 16553
BSTAR          = .7365789E-3
MEAN_MOTION_DOT = .43819E-3
MEAN_MOTION_DDOT = 0

